SL-8 R/B                
1 08459U 75112B   26108.56888536  .00000051  00000+0  25422-4 0  9992
2 08459  74.0598 305.5534 0015165  23.6018 336.5829 14.38223650637606
SL-3 R/B                
1 10114U 77057B   26108.78196539  .00010507  00000+0  21280-3 0  9996
2 10114  97.5812 282.5142 0008230 133.2567 226.9370 15.46580525674529
SEASAT 1                
1 10967U 78064A   26108.20050024  .00000174  00000+0  87130-4 0  9992
2 10967 108.0074 208.3983 0002800 265.0076  95.0750 14.46193877512222
SL-14 R/B               
1 11267U 79011B   26108.28514014  .00000396  00000+0  36541-4 0  9997
2 11267  82.5243  58.9901 0014457 287.2007  72.7629 14.91959682534685
SL-8 R/B                
1 11574U 79089B   26108.21067509  .00000150  00000+0  53183-4 0  9997
2 11574  74.0713  17.8849 0015949 183.8462 176.2575 14.42375848441805
SL-14 R/B               
1 11672U 80005B   26108.86115876  .00000379  00000+0  35694-4 0  9998
2 11672  82.5115 269.1164 0016502  34.2856 325.9425 14.90975501482478
SL-8 R/B                
1 12139U 81003B   26108.84462140  .00014320  00000+0  35564-3 0  9999
2 12139  82.9372 252.8397 0257191  39.1129 322.8382 15.12647007320742
SL-3 R/B                
1 12465U 81046B   26108.80949051  .00010357  00000+0  23324-3 0  9992
2 12465  81.2311 241.5237 0018200 238.0660 121.8813 15.42959973444613
SL-3 R/B                
1 12904U 81103B   26108.82025564  .00003390  00000+0  14787-3 0  9992
2 12904  81.1591 166.3497 0013957 147.6363 212.5728 15.21806692979332
SL-3 R/B                
1 13068U 82013B   26108.81298229  .00003444  00000+0  14716-3 0  9996
2 13068  81.1710 113.7245 0023123  47.3813 312.9363 15.22347115410450
SL-3 R/B                
1 13154U 82039B   26108.80858823  .00001109  00000+0  65698-4 0  9993
2 13154  81.1509 169.6890 0028002 188.3906 171.6856 15.10283495387691
SL-3 R/B                
1 13403U 82079B   26108.75557780  .00003538  00000+0  13845-3 0  9990
2 13403  81.1447 145.7559 0024752  33.5611 326.7184 15.25262495383807
SL-14 R/B               
1 13553U 82092B   26108.49949903  .00000296  00000+0  30444-4 0  9997
2 13553  82.5647 104.1502 0020712 164.7419 315.8638 14.86700493334846
