[
    {
        "OBJECT_NAME": "SL-8 R/B",
        "OBJECT_ID": "1975-112B",
        "EPOCH": "2026-04-18T13:39:11.695104",
        "MEAN_MOTION": 14.3822365,
        "ECCENTRICITY": 0.0015165,
        "INCLINATION": 74.0598,
        "RA_OF_ASC_NODE": 305.5534,
        "ARG_OF_PERICENTER": 23.6018,
        "MEAN_ANOMALY": 336.5829,
        "EPHEMERIS_TYPE": 0,
        "CLASSIFICATION_TYPE": "U",
        "NORAD_CAT_ID": 8459,
        "ELEMENT_SET_NO": 999,
        "REV_AT_EPOCH": 63760,
        "BSTAR": 2.5422e-05,
        "MEAN_MOTION_DOT": 5.1e-07,
        "MEAN_MOTION_DDOT": 0
    },
    {
        "OBJECT_NAME": "SL-3 R/B",
        "OBJECT_ID": "1977-057B",
        "EPOCH": "2026-04-18T18:46:01.809696",
        "MEAN_MOTION": 15.46580525,
        "ECCENTRICITY": 0.000823,
        "INCLINATION": 97.5812,
        "RA_OF_ASC_NODE": 282.5142,
        "ARG_OF_PERICENTER": 133.2567,
        "MEAN_ANOMALY": 226.937,
        "EPHEMERIS_TYPE": 0,
        "CLASSIFICATION_TYPE": "U",
        "NORAD_CAT_ID": 10114,
        "ELEMENT_SET_NO": 999,
        "REV_AT_EPOCH": 67452,
        "BSTAR": 0.0002128,
        "MEAN_MOTION_DOT": 0.00010507,
        "MEAN_MOTION_DDOT": 0
    },
    {
        "OBJECT_NAME": "SEASAT 1",
        "OBJECT_ID": "1978-064A",
        "EPOCH": "2026-04-18T04:48:43.220736",
        "MEAN_MOTION": 14.46193877,
        "ECCENTRICITY": 0.00028,
        "INCLINATION": 108.0074,
        "RA_OF_ASC_NODE": 208.3983,
        "ARG_OF_PERICENTER": 265.0076,
        "MEAN_ANOMALY": 95.075,
        "EPHEMERIS_TYPE": 0,
        "CLASSIFICATION_TYPE": "U",
        "NORAD_CAT_ID": 10967,
        "ELEMENT_SET_NO": 999,
        "REV_AT_EPOCH": 51222,
        "BSTAR": 8.7130221e-05,
        "MEAN_MOTION_DOT": 1.74e-06,
        "MEAN_MOTION_DDOT": 0
    },
    {
        "OBJECT_NAME": "SL-14 R/B",
        "OBJECT_ID": "1979-011B",
        "EPOCH": "2026-04-18T06:50:36.108096",
        "MEAN_MOTION": 14.91959682,
        "ECCENTRICITY": 0.00144571,
        "INCLINATION": 82.5243,
        "RA_OF_ASC_NODE": 58.9901,
        "ARG_OF_PERICENTER": 287.2007,
        "MEAN_ANOMALY": 72.7629,
        "EPHEMERIS_TYPE": 0,
        "CLASSIFICATION_TYPE": "U",
        "NORAD_CAT_ID": 11267,
        "ELEMENT_SET_NO": 999,
        "REV_AT_EPOCH": 53468,
        "BSTAR": 3.6540656e-05,
        "MEAN_MOTION_DOT": 3.96e-06,
        "MEAN_MOTION_DDOT": 0
    },
    {
        "OBJECT_NAME": "SL-8 R/B",
        "OBJECT_ID": "1979-089B",
        "EPOCH": "2026-04-18T05:03:22.327776",
        "MEAN_MOTION": 14.42375848,
        "ECCENTRICITY": 0.00159499,
        "INCLINATION": 74.0713,
        "RA_OF_ASC_NODE": 17.8849,
        "ARG_OF_PERICENTER": 183.8462,
        "MEAN_ANOMALY": 176.2575,
        "EPHEMERIS_TYPE": 0,
        "CLASSIFICATION_TYPE": "U",
        "NORAD_CAT_ID": 11574,
        "ELEMENT_SET_NO": 999,
        "REV_AT_EPOCH": 44180,
        "BSTAR": 5.3182714e-05,
        "MEAN_MOTION_DOT": 1.5e-06,
        "MEAN_MOTION_DDOT": 0
    },
    {
        "OBJECT_NAME": "SL-14 R/B",
        "OBJECT_ID": "1980-005B",
        "EPOCH": "2026-04-18T20:40:04.116864",
        "MEAN_MOTION": 14.90975501,
        "ECCENTRICITY": 0.0016502,
        "INCLINATION": 82.5115,
        "RA_OF_ASC_NODE": 269.1164,
        "ARG_OF_PERICENTER": 34.2856,
        "MEAN_ANOMALY": 325.9425,
        "EPHEMERIS_TYPE": 0,
        "CLASSIFICATION_TYPE": "U",
        "NORAD_CAT_ID": 11672,
        "ELEMENT_SET_NO": 999,
        "REV_AT_EPOCH": 48247,
        "BSTAR": 3.5694e-05,
        "MEAN_MOTION_DOT": 3.79e-06,
        "MEAN_MOTION_DDOT": 0
    },
    {
        "OBJECT_NAME": "SL-8 R/B",
        "OBJECT_ID": "1981-003B",
        "EPOCH": "2026-04-18T20:16:15.288960",
        "MEAN_MOTION": 15.12647007,
        "ECCENTRICITY": 0.0257191,
        "INCLINATION": 82.9372,
        "RA_OF_ASC_NODE": 252.8397,
        "ARG_OF_PERICENTER": 39.1129,
        "MEAN_ANOMALY": 322.8382,
        "EPHEMERIS_TYPE": 0,
        "CLASSIFICATION_TYPE": "U",
        "NORAD_CAT_ID": 12139,
        "ELEMENT_SET_NO": 999,
        "REV_AT_EPOCH": 32074,
        "BSTAR": 0.00035564,
        "MEAN_MOTION_DOT": 0.0001432,
        "MEAN_MOTION_DDOT": 0
    },
    {
        "OBJECT_NAME": "SL-3 R/B",
        "OBJECT_ID": "1981-046B",
        "EPOCH": "2026-04-18T19:25:39.980064",
        "MEAN_MOTION": 15.42959973,
        "ECCENTRICITY": 0.00182,
        "INCLINATION": 81.2311,
        "RA_OF_ASC_NODE": 241.5237,
        "ARG_OF_PERICENTER": 238.066,
        "MEAN_ANOMALY": 121.8813,
        "EPHEMERIS_TYPE": 0,
        "CLASSIFICATION_TYPE": "U",
        "NORAD_CAT_ID": 12465,
        "ELEMENT_SET_NO": 999,
        "REV_AT_EPOCH": 44461,
        "BSTAR": 0.00023324,
        "MEAN_MOTION_DOT": 0.00010357,
        "MEAN_MOTION_DDOT": 0
    },
    {
        "OBJECT_NAME": "SL-3 R/B",
        "OBJECT_ID": "1981-103B",
        "EPOCH": "2026-04-18T19:41:10.087296",
        "MEAN_MOTION": 15.21806692,
        "ECCENTRICITY": 0.0013957,
        "INCLINATION": 81.1591,
        "RA_OF_ASC_NODE": 166.3497,
        "ARG_OF_PERICENTER": 147.6363,
        "MEAN_ANOMALY": 212.5728,
        "EPHEMERIS_TYPE": 0,
        "CLASSIFICATION_TYPE": "U",
        "NORAD_CAT_ID": 12904,
        "ELEMENT_SET_NO": 999,
        "REV_AT_EPOCH": 97933,
        "BSTAR": 0.00014787,
        "MEAN_MOTION_DOT": 3.39e-05,
        "MEAN_MOTION_DDOT": 0
    },
    {
        "OBJECT_NAME": "SL-3 R/B",
        "OBJECT_ID": "1982-013B",
        "EPOCH": "2026-04-18T19:30:41.669856",
        "MEAN_MOTION": 15.22347115,
        "ECCENTRICITY": 0.0023123,
        "INCLINATION": 81.171,
        "RA_OF_ASC_NODE": 113.7245,
        "ARG_OF_PERICENTER": 47.3813,
        "MEAN_ANOMALY": 312.9363,
        "EPHEMERIS_TYPE": 0,
        "CLASSIFICATION_TYPE": "U",
        "NORAD_CAT_ID": 13068,
        "ELEMENT_SET_NO": 999,
        "REV_AT_EPOCH": 41045,
        "BSTAR": 0.00014716,
        "MEAN_MOTION_DOT": 3.444e-05,
        "MEAN_MOTION_DDOT": 0
    },
    {
        "OBJECT_NAME": "SL-3 R/B",
        "OBJECT_ID": "1982-039B",
        "EPOCH": "2026-04-18T19:24:22.023072",
        "MEAN_MOTION": 15.10283495,
        "ECCENTRICITY": 0.0028002,
        "INCLINATION": 81.1509,
        "RA_OF_ASC_NODE": 169.689,
        "ARG_OF_PERICENTER": 188.3906,
        "MEAN_ANOMALY": 171.6856,
        "EPHEMERIS_TYPE": 0,
        "CLASSIFICATION_TYPE": "U",
        "NORAD_CAT_ID": 13154,
        "ELEMENT_SET_NO": 999,
        "REV_AT_EPOCH": 38769,
        "BSTAR": 6.5698e-05,
        "MEAN_MOTION_DOT": 1.109e-05,
        "MEAN_MOTION_DDOT": 0
    },
    {
        "OBJECT_NAME": "SL-3 R/B",
        "OBJECT_ID": "1982-079B",
        "EPOCH": "2026-04-18T18:08:01.921920",
        "MEAN_MOTION": 15.25262495,
        "ECCENTRICITY": 0.0024752,
        "INCLINATION": 81.1447,
        "RA_OF_ASC_NODE": 145.7559,
        "ARG_OF_PERICENTER": 33.5611,
        "MEAN_ANOMALY": 326.7184,
        "EPHEMERIS_TYPE": 0,
        "CLASSIFICATION_TYPE": "U",
        "NORAD_CAT_ID": 13403,
        "ELEMENT_SET_NO": 999,
        "REV_AT_EPOCH": 38380,
        "BSTAR": 0.00013845,
        "MEAN_MOTION_DOT": 3.538e-05,
        "MEAN_MOTION_DDOT": 0
    },
    {
        "OBJECT_NAME": "SL-14 R/B",
        "OBJECT_ID": "1982-092B",
        "EPOCH": "2026-04-18T11:59:16.716192",
        "MEAN_MOTION": 14.86700493,
        "ECCENTRICITY": 0.00207122,
        "INCLINATION": 82.5647,
        "RA_OF_ASC_NODE": 104.1502,
        "ARG_OF_PERICENTER": 164.7419,
        "MEAN_ANOMALY": 315.8638,
        "EPHEMERIS_TYPE": 0,
        "CLASSIFICATION_TYPE": "U",
        "NORAD_CAT_ID": 13553,
        "ELEMENT_SET_NO": 999,
        "REV_AT_EPOCH": 33484,
        "BSTAR": 3.0443933e-05,
        "MEAN_MOTION_DOT": 2.96e-06,
        "MEAN_MOTION_DDOT": 0
    }
]